[{"OBJECT_NAME":"SHIJIAN-6 03B (SJ-6 03B)","OBJECT_ID":"2008-053B","EPOCH":"2026-03-09T23:28:00.216192","MEAN_MOTION":15.03879314,"ECCENTRICITY":0.00200774,"INCLINATION":97.8673,"RA_OF_ASC_NODE":87.2117,"ARG_OF_PERICENTER":21.0315,"MEAN_ANOMALY":339.1731,"EPHEMERIS_TYPE":0,"CLASSIFICATION_TYPE":"U","NORAD_CAT_ID":33409,"ELEMENT_SET_NO":999,"REV_AT_EPOCH":94783,"BSTAR":0.00032650966,"MEAN_MOTION_DOT":4.452e-5,"MEAN_MOTION_DDOT":0},{"OBJECT_NAME":"STARLINK-3512","OBJECT_ID":"2022-016AF","EPOCH":"2026-03-09T23:26:42.491616","MEAN_MOTION":15.08839759,"ECCENTRICITY":0.00014741,"INCLINATION":53.2198,"RA_OF_ASC_NODE":307.7586,"ARG_OF_PERICENTER":97.9391,"MEAN_ANOMALY":262.1769,"EPHEMERIS_TYPE":0,"CLASSIFICATION_TYPE":"U","NORAD_CAT_ID":51743,"ELEMENT_SET_NO":999,"REV_AT_EPOCH":22374,"BSTAR":2.9924762e-5,"MEAN_MOTION_DOT":1.88e-6,"MEAN_MOTION_DDOT":0}]
